{"type": "FeatureCollection", "features": [ {"type": "Feature", "properties": {"norad_id": 34870, "name": "IRIDIUM 33 DEB", "group": "iridium-33-debris", "lat": -86.30583506341583, "lon": -140.2899665473192, "alt_km": 656.5405713841574, "timestamp": "2025-12-26T21:25:53.394857+00:00", "meta": {"OBJECT_NAME": "IRIDIUM 33 DEB", "OBJECT_ID": "1997-051MQ", "EPOCH": "2025-12-26T04:14:20.156352", "MEAN_MOTION": 14.7668735, "ECCENTRICITY": 0.00182715, "INCLINATION": 86.3108, "RA_OF_ASC_NODE": 307.9292, "ARG_OF_PERICENTER": 135.8969, "MEAN_ANOMALY": 288.3699, "EPHEMERIS_TYPE": 0, "CLASSIFICATION_TYPE": "U", "NORAD_CAT_ID": 34870, "ELEMENT_SET_NO": 999, "REV_AT_EPOCH": 89109, "BSTAR": 0.001456659, "MEAN_MOTION_DOT": 0.00010246, "MEAN_MOTION_DDOT": 0}, "tle": {"line1": "1 34870U 97051MQ  25360.17662218  .00010246  00000+0  14567-2 0  9990", "line2": "2 34870  86.3108 307.9292 0018271 135.8969 288.3699 14.76687350891091"}}, "geometry": {"type": "Point", "coordinates": [-140.2899665473192, -86.30583506341583]}}, {"type": "Feature", "properties": {"norad_id": 34896, "name": "IRIDIUM 33 DEB", "group": "iridium-33-debris", "lat": -48.6337909001247, "lon": -43.84281793282831, "alt_km": 694.7142986248655, "timestamp": "2025-12-26T21:25:53.394868+00:00", "meta": {"OBJECT_NAME": "IRIDIUM 33 DEB", "OBJECT_ID": "1997-051MY", "EPOCH": "2025-12-24T04:12:44.288640", "MEAN_MOTION": 14.66381715, "ECCENTRICITY": 0.00257287, "INCLINATION": 86.3299, "RA_OF_ASC_NODE": 321.5555, "ARG_OF_PERICENTER": 173.6101, "MEAN_ANOMALY": 201.3064, "EPHEMERIS_TYPE": 0, "CLASSIFICATION_TYPE": "U", "NORAD_CAT_ID": 34896, "ELEMENT_SET_NO": 999, "REV_AT_EPOCH": 87787, "BSTAR": 0.00093038371, "MEAN_MOTION_DOT": 5.188e-05, "MEAN_MOTION_DDOT": 0}, "tle": {"line1": "1 34896U 97051MY  25358.17551260  .00005188  00000+0  93038-3 0  9999", "line2": "2 34896  86.3299 321.5555 0025728 173.6101 201.3064 14.66381715877873"}}, "geometry": {"type": "Point", "coordinates": [-43.84281793282831, -48.6337909001247]}}, {"type": "Feature", "properties": {"norad_id": 34926, "name": "IRIDIUM 33 DEB", "group": "iridium-33-debris", "lat": 13.680369201812116, "lon": -179.23705997754627, "alt_km": 698.5815616128448, "timestamp": "2025-12-26T21:25:53.394878+00:00", "meta": {"OBJECT_NAME": "IRIDIUM 33 DEB", "OBJECT_ID": "1997-051NF", "EPOCH": "2025-12-25T18:30:14.349024", "MEAN_MOTION": 14.55003847, "ECCENTRICITY": 0.00742448, "INCLINATION": 86.1316, "RA_OF_ASC_NODE": 2.2273, "ARG_OF_PERICENTER": 247.4767, "MEAN_ANOMALY": 166.2453, "EPHEMERIS_TYPE": 0, "CLASSIFICATION_TYPE": "U", "NORAD_CAT_ID": 34926, "ELEMENT_SET_NO": 999, "REV_AT_EPOCH": 86646, "BSTAR": 0.0054586547, "MEAN_MOTION_DOT": 0.0002447, "MEAN_MOTION_DDOT": 0}, "tle": {"line1": "1 34926U 97051NF  25359.77099941  .00024470  00000+0  54587-2 0  9993", "line2": "2 34926  86.1316   2.2273 0074244 247.4767 166.2453 14.55003847866469"}}, "geometry": {"type": "Point", "coordinates": [-179.23705997754627, 13.680369201812116]}}, {"type": "Feature", "properties": {"norad_id": 34985, "name": "IRIDIUM 33 DEB", "group": "iridium-33-debris", "lat": 5.990678903959459, "lon": 51.2227891439669, "alt_km": 769.3140152481783, "timestamp": "2025-12-26T21:25:53.394888+00:00", "meta": {"OBJECT_NAME": "IRIDIUM 33 DEB", "OBJECT_ID": "1997-051NR", "EPOCH": "2025-12-26T09:50:20.314176", "MEAN_MOTION": 14.4206468, "ECCENTRICITY": 0.00221767, "INCLINATION": 86.3683, "RA_OF_ASC_NODE": 51.047, "ARG_OF_PERICENTER": 174.4145, "MEAN_ANOMALY": 205.7839, "EPHEMERIS_TYPE": 0, "CLASSIFICATION_TYPE": "U", "NORAD_CAT_ID": 34985, "ELEMENT_SET_NO": 999, "REV_AT_EPOCH": 87372, "BSTAR": 0.00061510564, "MEAN_MOTION_DOT": 2.045e-05, "MEAN_MOTION_DDOT": 0}, "tle": {"line1": "1 34985U 97051NR  25360.40995734  .00002045  00000+0  61511-3 0  9995", "line2": "2 34985  86.3683  51.0470 0022176 174.4145 205.7839 14.42064680873722"}}, "geometry": {"type": "Point", "coordinates": [51.2227891439669, 5.990678903959459]}}, {"type": "Feature", "properties": {"norad_id": 35051, "name": "IRIDIUM 33 DEB", "group": "iridium-33-debris", "lat": -43.30745259447816, "lon": -173.83230445493794, "alt_km": 747.3400243470742, "timestamp": "2025-12-26T21:25:53.394899+00:00", "meta": {"OBJECT_NAME": "IRIDIUM 33 DEB", "OBJECT_ID": "1997-051NX", "EPOCH": "2025-12-22T18:31:37.744896", "MEAN_MOTION": 14.47639956, "ECCENTRICITY": 0.0010302, "INCLINATION": 86.324, "RA_OF_ASC_NODE": 4.4893, "ARG_OF_PERICENTER": 63.2582, "MEAN_ANOMALY": 296.9674, "EPHEMERIS_TYPE": 0, "CLASSIFICATION_TYPE": "U", "NORAD_CAT_ID": 35051, "ELEMENT_SET_NO": 999, "REV_AT_EPOCH": 87141, "BSTAR": 0.00060447572, "MEAN_MOTION_DOT": 2.248e-05, "MEAN_MOTION_DDOT": 0}, "tle": {"line1": "1 35051U 97051NX  25356.77196464  .00002248  00000+0  60448-3 0  9991", "line2": "2 35051  86.3240   4.4893 0010302  63.2582 296.9674 14.47639956871417"}}, "geometry": {"type": "Point", "coordinates": [-173.83230445493794, -43.30745259447816]}}, {"type": "Feature", "properties": {"norad_id": 35052, "name": "IRIDIUM 33 DEB", "group": "iridium-33-debris", "lat": -85.80637084186417, "lon": -104.51049850462753, "alt_km": 777.6553690816545, "timestamp": "2025-12-26T21:25:53.394914+00:00", "meta": {"OBJECT_NAME": "IRIDIUM 33 DEB", "OBJECT_ID": "1997-051NY", "EPOCH": "2025-12-26T00:09:21.492000", "MEAN_MOTION": 14.38507246, "ECCENTRICITY": 0.00130035, "INCLINATION": 86.3301, "RA_OF_ASC_NODE": 14.7874, "ARG_OF_PERICENTER": 47.6773, "MEAN_ANOMALY": 312.5525, "EPHEMERIS_TYPE": 0, "CLASSIFICATION_TYPE": "U", "NORAD_CAT_ID": 35052, "ELEMENT_SET_NO": 999, "REV_AT_EPOCH": 87466, "BSTAR": 0.00018800221, "MEAN_MOTION_DOT": 5.94e-06, "MEAN_MOTION_DDOT": 0}, "tle": {"line1": "1 35052U 97051NY  25360.00649875  .00000594  00000+0  18800-3 0  9999", "line2": "2 35052  86.3301  14.7874 0013003  47.6773 312.5525 14.38507246874664"}}, "geometry": {"type": "Point", "coordinates": [-104.51049850462753, -85.80637084186417]}}, {"type": "Feature", "properties": {"norad_id": 35080, "name": "IRIDIUM 33 DEB", "group": "iridium-33-debris", "lat": 21.93555189883218, "lon": 47.135272379989914, "alt_km": 617.8018825439858, "timestamp": "2025-12-26T21:25:53.394924+00:00", "meta": {"OBJECT_NAME": "IRIDIUM 33 DEB", "OBJECT_ID": "1997-051PF", "EPOCH": "2025-12-26T03:34:24.926304", "MEAN_MOTION": 14.87541641, "ECCENTRICITY": 0.00577697, "INCLINATION": 86.209, "RA_OF_ASC_NODE": 45.9614, "ARG_OF_PERICENTER": 133.1259, "MEAN_ANOMALY": 227.4819, "EPHEMERIS_TYPE": 0, "CLASSIFICATION_TYPE": "U", "NORAD_CAT_ID": 35080, "ELEMENT_SET_NO": 999, "REV_AT_EPOCH": 69887, "BSTAR": 0.0052116304, "MEAN_MOTION_DOT": 0.00049051, "MEAN_MOTION_DDOT": 0}, "tle": {"line1": "1 35080U 97051PF  25360.14889961  .00049051  00000+0  52116-2 0  9995", "line2": "2 35080  86.2090  45.9614 0057769 133.1259 227.4819 14.87541641698872"}}, "geometry": {"type": "Point", "coordinates": [47.135272379989914, 21.93555189883218]}}, {"type": "Feature", "properties": {"norad_id": 35297, "name": "IRIDIUM 33 DEB", "group": "iridium-33-debris", "lat": 24.46236139142073, "lon": -124.92931836661802, "alt_km": 733.5623602862815, "timestamp": "2025-12-26T21:25:53.394937+00:00", "meta": {"OBJECT_NAME": "IRIDIUM 33 DEB", "OBJECT_ID": "1997-051PM", "EPOCH": "2025-12-26T10:44:46.667040", "MEAN_MOTION": 14.4521519, "ECCENTRICITY": 0.00180762, "INCLINATION": 86.3846, "RA_OF_ASC_NODE": 56.909, "ARG_OF_PERICENTER": 100.7298, "MEAN_ANOMALY": 259.594, "EPHEMERIS_TYPE": 0, "CLASSIFICATION_TYPE": "U", "NORAD_CAT_ID": 35297, "ELEMENT_SET_NO": 999, "REV_AT_EPOCH": 70624, "BSTAR": 0.00060665751, "MEAN_MOTION_DOT": 2.149e-05, "MEAN_MOTION_DDOT": 0}, "tle": {"line1": "1 35297U 97051PM  25360.44776235  .00002149  00000+0  60666-3 0  9994", "line2": "2 35297  86.3846  56.9090 0018076 100.7298 259.5940 14.45215190706246"}}, "geometry": {"type": "Point", "coordinates": [-124.92931836661802, 24.46236139142073]}}, {"type": "Feature", "properties": {"norad_id": 35299, "name": "IRIDIUM 33 DEB", "group": "iridium-33-debris", "lat": -49.75547926331177, "lon": -148.57721067722156, "alt_km": 803.7542823450585, "timestamp": "2025-12-26T21:25:53.394947+00:00", "meta": {"OBJECT_NAME": "IRIDIUM 33 DEB", "OBJECT_ID": "1997-051PP", "EPOCH": "2025-12-26T08:45:22.328064", "MEAN_MOTION": 14.40928919, "ECCENTRICITY": 0.00584543, "INCLINATION": 86.2878, "RA_OF_ASC_NODE": 27.2535, "ARG_OF_PERICENTER": 58.9388, "MEAN_ANOMALY": 312.8971, "EPHEMERIS_TYPE": 0, "CLASSIFICATION_TYPE": "U", "NORAD_CAT_ID": 35299, "ELEMENT_SET_NO": 999, "REV_AT_EPOCH": 86527, "BSTAR": 0.00083606404, "MEAN_MOTION_DOT": 2.757e-05, "MEAN_MOTION_DDOT": 0}, "tle": {"line1": "1 35299U 97051PP  25360.36484176  .00002757  00000+0  83606-3 0  9991", "line2": "2 35299  86.2878  27.2535 0058454  58.9388 312.8971 14.40928919865276"}}, "geometry": {"type": "Point", "coordinates": [-148.57721067722156, -49.75547926331177]}}, {"type": "Feature", "properties": {"norad_id": 35480, "name": "IRIDIUM 33 DEB", "group": "iridium-33-debris", "lat": 62.14632185816264, "lon": 25.702185335663614, "alt_km": 709.0144630033319, "timestamp": "2025-12-26T21:25:53.394957+00:00", "meta": {"OBJECT_NAME": "IRIDIUM 33 DEB", "OBJECT_ID": "1997-051QA", "EPOCH": "2025-12-24T07:51:25.805664", "MEAN_MOTION": 14.49809175, "ECCENTRICITY": 0.00158453, "INCLINATION": 86.3558, "RA_OF_ASC_NODE": 19.8875, "ARG_OF_PERICENTER": 70.7073, "MEAN_ANOMALY": 289.5844, "EPHEMERIS_TYPE": 0, "CLASSIFICATION_TYPE": "U", "NORAD_CAT_ID": 35480, "ELEMENT_SET_NO": 999, "REV_AT_EPOCH": 87199, "BSTAR": 0.00057778093, "MEAN_MOTION_DOT": 2.251e-05, "MEAN_MOTION_DDOT": 0}, "tle": {"line1": "1 35480U 97051QA  25358.32738201  .00002251  00000+0  57778-3 0  9997", "line2": "2 35480  86.3558  19.8875 0015845  70.7073 289.5844 14.49809175871994"}}, "geometry": {"type": "Point", "coordinates": [25.702185335663614, 62.14632185816264]}}]}